{
  "type": "FeatureCollection",
  "features": [
    {
      "type": "Feature",
      "properties": {
        "norad_id": 66611,
        "name": "STARLINK-35583",
        "group": "last-30-days",
        "lat": 39.57183728432976,
        "lon": -98.10536273756449,
        "alt_km": 410.2260218852771,
        "timestamp": "2025-12-11T13:55:00.914720+00:00",
        "meta_object_name": "STARLINK-35583",
        "meta_object_id": "2025-270Z",
        "meta_epoch": "2025-12-11T06:00:02.999808",
        "meta_mean_motion": 15.50648324,
        "meta_eccentricity": 0.00021049,
        "meta_inclination": 42.9998,
        "meta_ra_of_asc_node": 201.339,
        "meta_arg_of_pericenter": 262.6602,
        "meta_mean_anomaly": 123.0976,
        "meta_ephemeris_type": 0,
        "meta_classification_type": "U",
        "meta_norad_cat_id": 66611,
        "meta_element_set_no": 999,
        "meta_rev_at_epoch": 427,
        "meta_bstar": -0.0027756016,
        "meta_mean_motion_dot": -0.00160293,
        "meta_mean_motion_ddot": 0,
        "tle_line1": "1 66611U 25270Z   25345.25003472 -.00160293  00000+0 -27756-2 0  9999",
        "tle_line2": "2 66611  42.9998 201.3390 0002104 262.6602 123.0976 15.50648324  4271"
      },
      "geometry": {
        "type": "Point",
        "coordinates": [
          -98.10536273756449,
          39.57183728432976
        ]
      }
    },
    {
      "type": "Feature",
      "properties": {
        "norad_id": 66612,
        "name": "STARLINK-36039",
        "group": "last-30-days",
        "lat": 40.15168234685921,
        "lon": -95.7296402140463,
        "alt_km": 410.2008130808417,
        "timestamp": "2025-12-11T13:55:00.914730+00:00",
        "meta_object_name": "STARLINK-36039",
        "meta_object_id": "2025-270AA",
        "meta_epoch": "2025-12-11T06:00:02.999808",
        "meta_mean_motion": 15.50630555,
        "meta_eccentricity": 0.00022489,
        "meta_inclination": 42.9999,
        "meta_ra_of_asc_node": 201.3333,
        "meta_arg_of_pericenter": 257.947,
        "meta_mean_anomaly": 129.7259,
        "meta_ephemeris_type": 0,
        "meta_classification_type": "U",
        "meta_norad_cat_id": 66612,
        "meta_element_set_no": 999,
        "meta_rev_at_epoch": 416,
        "meta_bstar": -0.001748284,
        "meta_mean_motion_dot": -0.00101778,
        "meta_mean_motion_ddot": 0,
        "tle_line1": "1 66612U 25270AA  25345.25003472 -.00101778  00000+0 -17483-2 0  9999",
        "tle_line2": "2 66612  42.9999 201.3333 0002248 257.9470 129.7259 15.50630555  4161"
      },
      "geometry": {
        "type": "Point",
        "coordinates": [
          -95.7296402140463,
          40.15168234685921
        ]
      }
    },
    {
      "type": "Feature",
      "properties": {
        "norad_id": 66613,
        "name": "STARLINK-36037",
        "group": "last-30-days",
        "lat": 40.68244042291071,
        "lon": -93.30938741530854,
        "alt_km": 410.0842255043053,
        "timestamp": "2025-12-11T13:55:00.914740+00:00",
        "meta_object_name": "STARLINK-36037",
        "meta_object_id": "2025-270AB",
        "meta_epoch": "2025-12-11T06:00:02.999808",
        "meta_mean_motion": 15.50648646,
        "meta_eccentricity": 0.00021206,
        "meta_inclination": 42.9997,
        "meta_ra_of_asc_node": 201.329,
        "meta_arg_of_pericenter": 263.311,
        "meta_mean_anomaly": 126.2812,
        "meta_ephemeris_type": 0,
        "meta_classification_type": "U",
        "meta_norad_cat_id": 66613,
        "meta_element_set_no": 999,
        "meta_rev_at_epoch": 416,
        "meta_bstar": -0.0027907406,
        "meta_mean_motion_dot": -0.0016115,
        "meta_mean_motion_ddot": 0,
        "tle_line1": "1 66613U 25270AB  25345.25003472 -.00161150  00000+0 -27907-2 0  9992",
        "tle_line2": "2 66613  42.9997 201.3290 0002120 263.3110 126.2812 15.50648646  4160"
      },
      "geometry": {
        "type": "Point",
        "coordinates": [
          -93.30938741530854,
          40.68244042291071
        ]
      }
    },
    {
      "type": "Feature",
      "properties": {
        "norad_id": 66614,
        "name": "STARLINK-36040",
        "group": "last-30-days",
        "lat": 41.58969570552931,
        "lon": -88.35362751051873,
        "alt_km": 409.9807388588415,
        "timestamp": "2025-12-11T13:55:00.914751+00:00",
        "meta_object_name": "STARLINK-36040",
        "meta_object_id": "2025-270AC",
        "meta_epoch": "2025-12-11T06:00:02.999808",
        "meta_mean_motion": 15.50674375,
        "meta_eccentricity": 0.00021381,
        "meta_inclination": 42.9999,
        "meta_ra_of_asc_node": 201.3192,
        "meta_arg_of_pericenter": 264.3933,
        "meta_mean_anomaly": 129.029,
        "meta_ephemeris_type": 0,
        "meta_classification_type": "U",
        "meta_norad_cat_id": 66614,
        "meta_element_set_no": 999,
        "meta_rev_at_epoch": 400,
        "meta_bstar": -0.0035313856,
        "meta_mean_motion_dot": -0.00202942,
        "meta_mean_motion_ddot": 0,
        "tle_line1": "1 66614U 25270AC  25345.25003472 -.00202942  00000+0 -35314-2 0  9999",
        "tle_line2": "2 66614  42.9999 201.3192 0002138 264.3933 129.0290 15.50674375  4009"
      },
      "geometry": {
        "type": "Point",
        "coordinates": [
          -88.35362751051873,
          41.58969570552931
        ]
      }
    },
    {
      "type": "Feature",
      "properties": {
        "norad_id": 66615,
        "name": "STARLINK-35988",
        "group": "last-30-days",
        "lat": 41.148738690733765,
        "lon": -90.92327290698516,
        "alt_km": 409.76177954251034,
        "timestamp": "2025-12-11T13:55:00.914761+00:00",
        "meta_object_name": "STARLINK-35988",
        "meta_object_id": "2025-270AD",
        "meta_epoch": "2025-12-11T06:00:02.999808",
        "meta_mean_motion": 15.50643999,
        "meta_eccentricity": 0.00019191,
        "meta_inclination": 42.9994,
        "meta_ra_of_asc_node": 201.3238,
        "meta_arg_of_pericenter": 244.0107,
        "meta_mean_anomaly": 147.4303,
        "meta_ephemeris_type": 0,
        "meta_classification_type": "U",
        "meta_norad_cat_id": 66615,
        "meta_element_set_no": 999,
        "meta_rev_at_epoch": 400,
        "meta_bstar": -0.0015288493,
        "meta_mean_motion_dot": -0.00089227,
        "meta_mean_motion_ddot": 0,
        "tle_line1": "1 66615U 25270AD  25345.25003472 -.00089227  00000+0 -15288-2 0  9997",
        "tle_line2": "2 66615  42.9994 201.3238 0001919 244.0107 147.4303 15.50643999  4007"
      },
      "geometry": {
        "type": "Point",
        "coordinates": [
          -90.92327290698516,
          41.148738690733765
        ]
      }
    },
    {
      "type": "Feature",
      "properties": {
        "norad_id": 66616,
        "name": "STARLINK-35391",
        "group": "last-30-days",
        "lat": 41.960844551524644,
        "lon": -85.83350611257899,
        "alt_km": 409.94699544298874,
        "timestamp": "2025-12-11T13:55:00.914773+00:00",
        "meta_object_name": "STARLINK-35391",
        "meta_object_id": "2025-270AE",
        "meta_epoch": "2025-12-11T06:00:02.999808",
        "meta_mean_motion": 15.50671723,
        "meta_eccentricity": 0.00021479,
        "meta_inclination": 42.9999,
        "meta_ra_of_asc_node": 201.3147,
        "meta_arg_of_pericenter": 263.2296,
        "meta_mean_anomaly": 132.1131,
        "meta_ephemeris_type": 0,
        "meta_classification_type": "U",
        "meta_norad_cat_id": 66616,
        "meta_element_set_no": 999,
        "meta_rev_at_epoch": 427,
        "meta_bstar": -0.0035156761,
        "meta_mean_motion_dot": -0.00202045,
        "meta_mean_motion_ddot": 0,
        "tle_line1": "1 66616U 25270AE  25345.25003472 -.00202045  00000+0 -35157-2 0  9990",
        "tle_line2": "2 66616  42.9999 201.3147 0002147 263.2296 132.1131 15.50671723  4273"
      },
      "geometry": {
        "type": "Point",
        "coordinates": [
          -85.83350611257899,
          41.960844551524644
        ]
      }
    },
    {
      "type": "Feature",
      "properties": {
        "norad_id": 66617,
        "name": "STARLINK-35940",
        "group": "last-30-days",
        "lat": 52.56189649979554,
        "lon": -88.88899403630401,
        "alt_km": 394.66712400638335,
        "timestamp": "2025-12-11T13:55:00.914785+00:00",
        "meta_object_name": "STARLINK-35940",
        "meta_object_id": "2025-271A",
        "meta_epoch": "2025-12-11T06:00:02.999808",
        "meta_mean_motion": 15.56431349,
        "meta_eccentricity": 8.247e-05,
        "meta_inclination": 53.1599,
        "meta_ra_of_asc_node": 194.3958,
        "meta_arg_of_pericenter": 93.0404,
        "meta_mean_anomaly": 301.6245,
        "meta_ephemeris_type": 0,
        "meta_classification_type": "U",
        "meta_norad_cat_id": 66617,
        "meta_element_set_no": 999,
        "meta_rev_at_epoch": 400,
        "meta_bstar": -0.032931774,
        "meta_mean_motion_dot": -0.02108061,
        "meta_mean_motion_ddot": 0,
        "tle_line1": "1 66617U 25271A   25345.25003472 -.02108061  00000+0 -32932-1 0  9994",
        "tle_line2": "2 66617  53.1599 194.3958 0000824  93.0404 301.6245 15.56431349  4009"
      },
      "geometry": {
        "type": "Point",
        "coordinates": [
          -88.88899403630401,
          52.56189649979554
        ]
      }
    }
  ]
}